[{"OBJECT_NAME":"IRIDIUM 142","OBJECT_ID":"2018-030H","EPOCH":"2026-03-09T19:54:27.398592","MEAN_MOTION":14.34217645,"ECCENTRICITY":0.000204,"INCLINATION":86.4006,"RA_OF_ASC_NODE":331.9079,"ARG_OF_PERICENTER":94.7375,"MEAN_ANOMALY":265.4053,"EPHEMERIS_TYPE":0,"CLASSIFICATION_TYPE":"U","NORAD_CAT_ID":43256,"ELEMENT_SET_NO":999,"REV_AT_EPOCH":41589,"BSTAR":-2.157633e-6,"MEAN_MOTION_DOT":1.4e-7,"MEAN_MOTION_DDOT":0},{"OBJECT_NAME":"OAO 1","OBJECT_ID":"1966-031A","EPOCH":"2026-03-09T22:29:12.598368","MEAN_MOTION":14.34672448,"ECCENTRICITY":0.00073246,"INCLINATION":35.0447,"RA_OF_ASC_NODE":152.8158,"ARG_OF_PERICENTER":241.0589,"MEAN_ANOMALY":118.9365,"EPHEMERIS_TYPE":0,"CLASSIFICATION_TYPE":"U","NORAD_CAT_ID":2142,"ELEMENT_SET_NO":999,"REV_AT_EPOCH":13682,"BSTAR":6.1080826e-5,"MEAN_MOTION_DOT":1.56e-6,"MEAN_MOTION_DDOT":0}]
